KNACKSAT-2              
1 67683U 98067XZ  26165.65979306  .00044887  00000+0  55154-3 0  9998
2 67683  51.6308 307.1872 0009407 204.1419 155.9135 15.59771864 19882
INNOSAT 3 (RS92S0)      
1 64894U 25155U   26166.17360353  .00028554  00000+0  63294-3 0  9998
2 64894  97.4483 137.6214 0006179 156.1441 204.0095 15.43700395 80653
